start=new Date('2023-04-15T00:00:00.000Z').valueOf();
sats=[{"FILE":"3887333","DECAY_DATE":null,"REV_AT_EPOCH":"130","OBJECT_TYPE":"PAYLOAD","MEAN_MOTION":"15.06367289","CENTER_NAME":"EARTH","TLE_LINE2":"2 44747  53.0541 305.6188 0001670  96.9576 356.4665 15.06367289  1309","GP_ID":"230052859","NORAD_CAT_ID":"44747","EPOCH":"2023-04-14T14:00:01.999872","EPHEMERIS_TYPE":"0","MEAN_MOTION_DDOT":"0.0000000000000","RCS_SIZE":"LARGE","MEAN_ELEMENT_THEORY":"SGP4","ELEMENT_SET_NO":"999","PERIAPSIS":"546.157","OBJECT_ID":"2019-074AL","REF_FRAME":"TEME","TIME_SYSTEM":"UTC","MEAN_MOTION_DOT":"0.00029086","BSTAR":"0.00196520000000","LAUNCH_DATE":"2019-11-11","INCLINATION":"53.0541","SITE":"AFETR","COUNTRY_CODE":"US","MEAN_ANOMALY":"356.4665","CLASSIFICATION_TYPE":"U","ARG_OF_PERICENTER":"96.9576","OBJECT_NAME":"STARLINK-1042","SEMIMAJOR_AXIS":"6925.449","PERIOD":"95.594","APOAPSIS":"548.470","ECCENTRICITY":"0.00016700","TLE_LINE1":"1 44747U 19074AL  23104.58335648  .00029086  00000-0  19652-2 0  9999","RA_OF_ASC_NODE":"305.6188"},{"EPHEMERIS_TYPE":"0","NORAD_CAT_ID":"44748","EPOCH":"2023-04-14T20:39:53.667648","MEAN_MOTION_DDOT":"0.0000000000000","RCS_SIZE":"LARGE","MEAN_ELEMENT_THEORY":"SGP4","ELEMENT_SET_NO":"999","PERIAPSIS":"546.697","FILE":"3887457","DECAY_DATE":null,"MEAN_MOTION":"15.06391459","OBJECT_TYPE":"PAYLOAD","REV_AT_EPOCH":"18862","TLE_LINE2":"2 44748  53.0526 304.3722 0000784  85.0962 275.0116 15.06391459188620","CENTER_NAME":"EARTH","GP_ID":"230064677","SITE":"AFETR","INCLINATION":"53.0526","MEAN_ANOMALY":"275.0116","CLASSIFICATION_TYPE":"U","COUNTRY_CODE":"US","APOAPSIS":"547.783","PERIOD":"95.593","ARG_OF_PERICENTER":"85.0962","OBJECT_NAME":"STARLINK-1043","SEMIMAJOR_AXIS":"6925.375","TLE_LINE1":"1 44748U 19074AM  23104.86103782  .00017421  00000-0  11858-2 0  9993","RA_OF_ASC_NODE":"304.3722","ECCENTRICITY":"0.00007840","OBJECT_ID":"2019-074AM","REF_FRAME":"TEME","TIME_SYSTEM":"UTC","MEAN_MOTION_DOT":"0.00017421","BSTAR":"0.00118580000000","LAUNCH_DATE":"2019-11-11"},{"RCS_SIZE":"LARGE","MEAN_ELEMENT_THEORY":"SGP4","ELEMENT_SET_NO":"999","PERIAPSIS":"546.412","NORAD_CAT_ID":"44751","EPOCH":"2023-04-14T13:03:25.140672","EPHEMERIS_TYPE":"0","MEAN_MOTION_DDOT":"0.0000000000000","CENTER_NAME":"EARTH","TLE_LINE2":"2 44751  53.0535 305.7940 0001130  86.0589 274.0529 15.06406293188409","GP_ID":"230053361","FILE":"3887333","DECAY_DATE":null,"REV_AT_EPOCH":"18840","MEAN_MOTION":"15.06406293","OBJECT_TYPE":"PAYLOAD","ARG_OF_PERICENTER":"86.0589","OBJECT_NAME":"STARLINK-1046","SEMIMAJOR_AXIS":"6925.329","APOAPSIS":"547.977","PERIOD":"95.592","ECCENTRICITY":"0.00011300","TLE_LINE1":"1 44751U 19074AQ  23104.54404098  .00012279  00000-0  84166-3 0  9995","RA_OF_ASC_NODE":"305.7940","INCLINATION":"53.0535","SITE":"AFETR","COUNTRY_CODE":"US","CLASSIFICATION_TYPE":"U","MEAN_ANOMALY":"274.0529","MEAN_MOTION_DOT":"0.00012279","BSTAR":"0.00084166000000","LAUNCH_DATE":"2019-11-11","OBJECT_ID":"2019-074AQ","REF_FRAME":"TEME","TIME_SYSTEM":"UTC"},{"TIME_SYSTEM":"UTC","OBJECT_ID":"2019-074AR","REF_FRAME":"TEME","LAUNCH_DATE":"2019-11-11","BSTAR":"0.00102480000000","MEAN_MOTION_DOT":"0.00015021","MEAN_ANOMALY":"286.0262","CLASSIFICATION_TYPE":"U","COUNTRY_CODE":"US","SITE":"AFETR","INCLINATION":"53.0560","TLE_LINE1":"1 44752U 19074AR  23104.49796876  .00015021  00000-0  10248-2 0  9995","RA_OF_ASC_NODE":"286.0059","ECCENTRICITY":"0.00014880","PERIOD":"95.591","APOAPSIS":"548.205","ARG_OF_PERICENTER":"74.0891","OBJECT_NAME":"STARLINK-1047","SEMIMAJOR_AXIS":"6925.310","OBJECT_TYPE":"PAYLOAD","MEAN_MOTION":"15.06412658","REV_AT_EPOCH":"18867","FILE":"3887333","DECAY_DATE":null,"GP_ID":"230052109","TLE_LINE2":"2 44752  53.0560 286.0059 0001488  74.0891 286.0262 15.06412658188677","CENTER_NAME":"EARTH","MEAN_MOTION_DDOT":"0.0000000000000","EPHEMERIS_TYPE":"0","NORAD_CAT_ID":"44752","EPOCH":"2023-04-14T11:57:04.500864","ELEMENT_SET_NO":"999","PERIAPSIS":"546.144","RCS_SIZE":"LARGE","MEAN_ELEMENT_THEORY":"SGP4"},{"REV_AT_EPOCH":"18895","MEAN_MOTION":"15.06352294","OBJECT_TYPE":"PAYLOAD","FILE":"3887333","DECAY_DATE":null,"GP_ID":"230052359","CENTER_NAME":"EARTH","TLE_LINE2":"2 44753  53.0527 265.9752 0001247  84.4421 275.6710 15.06352294188956","MEAN_MOTION_DDOT":"0.0000000000000","NORAD_CAT_ID":"44753","EPOCH":"2023-04-14T12:04:59.682720","EPHEMERIS_TYPE":"0","ELEMENT_SET_NO":"999","PERIAPSIS":"546.496","RCS_SIZE":"LARGE","MEAN_ELEMENT_THEORY":"SGP4","TIME_SYSTEM":"UTC","OBJECT_ID":"2019-074AS","REF_FRAME":"TEME","LAUNCH_DATE":"2019-11-11","BSTAR":"0.00166330000000","MEAN_MOTION_DOT":"0.00024548","COUNTRY_CODE":"US","MEAN_ANOMALY":"275.6710","CLASSIFICATION_TYPE":"U","INCLINATION":"53.0527","SITE":"AFETR","ECCENTRICITY":"0.00012470","TLE_LINE1":"1 44753U 19074AS  23104.50346855  .00024548  00000-0  16633-2 0  9994","RA_OF_ASC_NODE":"265.9752","ARG_OF_PERICENTER":"84.4421","OBJECT_NAME":"STARLINK-1048","SEMIMAJOR_AXIS":"6925.495","APOAPSIS":"548.223","PERIOD":"95.595"},{"BSTAR":"0.02712200000000","MEAN_MOTION_DOT":"0.01401027","LAUNCH_DATE":"2019-11-11","OBJECT_ID":"2019-074AT","REF_FRAME":"TEME","TIME_SYSTEM":"UTC","ARG_OF_PERICENTER":"75.7965","SEMIMAJOR_AXIS":"6811.244","OBJECT_NAME":"STARLINK-1049","APOAPSIS":"433.973","PERIOD":"93.239","ECCENTRICITY":"0.00012680","TLE_LINE1":"1 44754U 19074AT  23104.91667824  .01401027  00000-0  27122-1 0  9998","RA_OF_ASC_NODE":"262.1417","INCLINATION":"53.0536","SITE":"AFETR","COUNTRY_CODE":"US","MEAN_ANOMALY":"283.0623","CLASSIFICATION_TYPE":"U","CENTER_NAME":"EARTH","TLE_LINE2":"2 44754  53.0536 262.1417 0001268  75.7965 283.0623 15.44411632189213","GP_ID":"230064730","FILE":"3887458","DECAY_DATE":null,"REV_AT_EPOCH":"18921","MEAN_MOTION":"15.44411632","OBJECT_TYPE":"PAYLOAD","RCS_SIZE":"LARGE","MEAN_ELEMENT_THEORY":"SGP4","ELEMENT_SET_NO":"999","PERIAPSIS":"432.246","NORAD_CAT_ID":"44754","EPOCH":"2023-04-14T22:00:00.999936","EPHEMERIS_TYPE":"0","MEAN_MOTION_DDOT":"0.0000000000000"},{"CLASSIFICATION_TYPE":"U","MEAN_ANOMALY":"277.0055","COUNTRY_CODE":"US","SITE":"AFETR","INCLINATION":"53.0523","TLE_LINE1":"1 44757U 19074AW  23104.50902579  .00007782  00000-0  54057-3 0  9993","RA_OF_ASC_NODE":"285.9520","ECCENTRICITY":"0.00016450","PERIOD":"95.591","APOAPSIS":"548.318","ARG_OF_PERICENTER":"83.1121","SEMIMAJOR_AXIS":"6925.314","OBJECT_NAME":"STARLINK-1052","TIME_SYSTEM":"UTC","OBJECT_ID":"2019-074AW","REF_FRAME":"TEME","LAUNCH_DATE":"2019-11-11","MEAN_MOTION_DOT":"0.00007782","BSTAR":"0.00054057000000","MEAN_MOTION_DDOT":"0.0000000000000","EPHEMERIS_TYPE":"0","NORAD_CAT_ID":"44757","EPOCH":"2023-04-14T12:12:59.828256","ELEMENT_SET_NO":"999","PERIAPSIS":"546.040","RCS_SIZE":"LARGE","MEAN_ELEMENT_THEORY":"SGP4","MEAN_MOTION":"15.06411325","OBJECT_TYPE":"PAYLOAD","REV_AT_EPOCH":"18867","FILE":"3887333","DECAY_DATE":null,"GP_ID":"230053862","TLE_LINE2":"2 44757  53.0523 285.9520 0001645  83.1121 277.0055 15.06411325188674","CENTER_NAME":"EARTH"},{"DECAY_DATE":null,"FILE":"3887464","OBJECT_TYPE":"PAYLOAD","MEAN_MOTION":"15.06379481","REV_AT_EPOCH":"18862","TLE_LINE2":"2 44758  53.0541 304.4798 0001112  87.9753 272.1363 15.06379481188620","CENTER_NAME":"EARTH","GP_ID":"230064817","EPHEMERIS_TYPE":"0","NORAD_CAT_ID":"44758","EPOCH":"2023-04-14T20:34:36.449184","MEAN_MOTION_DDOT":"0.0000000000000","MEAN_ELEMENT_THEORY":"SGP4","RCS_SIZE":"LARGE","PERIAPSIS":"546.506","ELEMENT_SET_NO":"999","REF_FRAME":"TEME","OBJECT_ID":"2019-074AX","TIME_SYSTEM":"UTC","MEAN_MOTION_DOT":"0.00020620","BSTAR":"0.00139990000000","LAUNCH_DATE":"2019-11-11","SITE":"AFETR","INCLINATION":"53.0541","MEAN_ANOMALY":"272.1363","CLASSIFICATION_TYPE":"U","COUNTRY_CODE":"US","APOAPSIS":"548.047","PERIOD":"95.593","OBJECT_NAME":"STARLINK-1053","SEMIMAJOR_AXIS":"6925.411","ARG_OF_PERICENTER":"87.9753","RA_OF_ASC_NODE":"304.4798","TLE_LINE1":"1 44758U 19074AX  23104.85736631  .00020620  00000-0  13999-2 0  9991","ECCENTRICITY":"0.00011120"},{"NORAD_CAT_ID":"44759","EPOCH":"2023-04-14T20:08:03.040512","EPHEMERIS_TYPE":"0","MEAN_MOTION_DDOT":"0.0000000000000","MEAN_ELEMENT_THEORY":"SGP4","RCS_SIZE":"LARGE","PERIAPSIS":"546.412","ELEMENT_SET_NO":"999","DECAY_DATE":null,"FILE":"3887459","REV_AT_EPOCH":"18862","OBJECT_TYPE":"PAYLOAD","MEAN_MOTION":"15.06391307","CENTER_NAME":"EARTH","TLE_LINE2":"2 44759  53.0546 304.4709 0001196  81.1659 278.9465 15.06391307188629","GP_ID":"230064735","INCLINATION":"53.0546","SITE":"AFETR","COUNTRY_CODE":"US","MEAN_ANOMALY":"278.9465","CLASSIFICATION_TYPE":"U","OBJECT_NAME":"STARLINK-1054","SEMIMAJOR_AXIS":"6925.375","ARG_OF_PERICENTER":"81.1659","PERIOD":"95.593","APOAPSIS":"548.068","ECCENTRICITY":"0.00011960","RA_OF_ASC_NODE":"304.4709","TLE_LINE1":"1 44759U 19074AY  23104.83892408  .00005018  00000-0  35558-3 0  9995","REF_FRAME":"TEME","OBJECT_ID":"2019-074AY","TIME_SYSTEM":"UTC","BSTAR":"0.00035558000000","MEAN_MOTION_DOT":"0.00005018","LAUNCH_DATE":"2019-11-11"},{"GP_ID":"230064792","CENTER_NAME":"EARTH","TLE_LINE2":"2 44760  53.0518 302.3170 0001025 164.2739 195.8285 15.13272199188657","REV_AT_EPOCH":"18865","MEAN_MOTION":"15.13272199","OBJECT_TYPE":"PAYLOAD","FILE":"3887464","DECAY_DATE":null,"ELEMENT_SET_NO":"999","PERIAPSIS":"525.523","RCS_SIZE":"LARGE","MEAN_ELEMENT_THEORY":"SGP4","MEAN_MOTION_DDOT":"0.0000000000000","NORAD_CAT_ID":"44760","EPOCH":"2023-04-14T19:15:14.341248","EPHEMERIS_TYPE":"0","LAUNCH_DATE":"2019-11-11","BSTAR":"0.00207370000000","MEAN_MOTION_DOT":"0.00037211","TIME_SYSTEM":"UTC","OBJECT_ID":"2019-074AZ","REF_FRAME":"TEME","ECCENTRICITY":"0.00010250","TLE_LINE1":"1 44760U 19074AZ  23104.80224932  .00037211  00000-0  20737-2 0  9997","RA_OF_ASC_NODE":"302.3170","ARG_OF_PERICENTER":"164.2739","OBJECT_NAME":"STARLINK-1055","SEMIMAJOR_AXIS":"6904.366","APOAPSIS":"526.939","PERIOD":"95.158","COUNTRY_CODE":"US","CLASSIFICATION_TYPE":"U","MEAN_ANOMALY":"195.8285","INCLINATION":"53.0518","SITE":"AFETR"}];
